NORAD_CAT_ID,OBJECT_NAME,OBJECT_TYPE,EPOCH,MEAN_MOTION,ECCENTRICITY,INCLINATION,RA_OF_ASC_NODE,ARG_OF_PERICENTER,MEAN_ANOMALY,BSTAR,MEAN_MOTION_DOT,MEAN_MOTION_DDOT,TLE_LINE0,TLE_LINE1,TLE_LINE2,SEMIMAJOR_AXIS,PERIOD,APOGEE,PERIGEE,DECAYED
54095.0,STARLINK-5193,PAYLOAD,2024-03-25 20:28:37,15.08841319,0.0001557,53.2168,298.3248,107.4613,252.655,0.00015978,2.256e-05,0.0,0 STARLINK-5193,1 54095U 22136AW  24085.85321071  .00002256  00000-0  15978-3 0  9991,2 54095  53.2168 298.3248 0001557 107.4613 252.6550 15.08841319 79692,6917.876,95.437,540.818,538.664,0.0
54095.0,STARLINK-5193,PAYLOAD,2024-03-26 13:57:52,15.08826657,0.0001508,53.2154,295.055,100.5769,259.5393,-0.00012904,-2.34e-05,0.0,0 STARLINK-5193,1 54095U 22136AW  24086.58186096 -.00002340  00000-0 -12904-3 0  9990,2 54095  53.2154 295.0550 0001508 100.5769 259.5393 15.08826657 79801,6917.921,95.438,540.829,538.743,0.0
54095.0,STARLINK-5193,PAYLOAD,2024-03-26 20:19:25,15.08837113,0.0001484,53.218,293.8666,97.9273,262.1887,-0.00014035,-2.521e-05,0.0,0 STARLINK-5193,1 54095U 22136AW  24086.84682495 -.00002521  00000-0 -14035-3 0  9991,2 54095  53.2180 293.8666 0001484  97.9273 262.1887 15.08837113 79375,6917.889,95.438,540.781,538.728,0.0
54095.0,STARLINK-5193,PAYLOAD,2024-03-27 20:10:11,15.08846561,0.0001601,53.2179,289.4086,86.3965,273.7211,0.00021448,3.128e-05,0.0,0 STARLINK-5193,1 54095U 22136AW  24087.84041411  .00003128  00000-0  21448-3 0  9997,2 54095  53.2179 289.4086 0001601  86.3965 273.7211 15.08846561 79995,6917.86,95.437,540.833,538.618,0.0
54095.0,STARLINK-5193,PAYLOAD,2024-03-28 13:39:27,15.08839047,0.0001566,53.217,286.1337,90.894,269.2231,0.00021567,3.146e-05,0.0,0 STARLINK-5193,1 54095U 22136AW  24088.56906355  .00003146  00000-0  21567-3 0  9996,2 54095  53.2170 286.1337 0001566  90.8940 269.2231 15.08839047 80100,6917.883,95.438,540.832,538.665,0.0
54095.0,STARLINK-5193,PAYLOAD,2024-03-28 20:00:59,15.08841731,6.47e-05,53.2165,284.9439,61.9034,298.2023,0.00023242,3.413e-05,0.0,0 STARLINK-5193,1 54095U 22136AW  24088.83402279  .00003413  00000-0  23242-3 0  9991,2 54095  53.2165 284.9439 0000647  61.9034 298.2023 15.08841731 79679,6917.875,95.437,540.188,539.293,0.0
54095.0,STARLINK-5193,PAYLOAD,2024-03-29 11:54:50,15.08843807,0.0001433,53.2168,281.9753,85.6159,274.4997,-9.1948e-05,-1.751e-05,0.0,0 STARLINK-5193,1 54095U 22136AW  24089.49641976 -.00001751  00000-0 -91948-4 0  9997,2 54095  53.2168 281.9753 0001433  85.6159 274.4997 15.08843807 79776,6917.869,95.437,540.725,538.742,0.0
54095.0,STARLINK-5193,PAYLOAD,2024-03-30 05:24:05,15.08844281,0.000142,53.2172,278.7029,80.5119,279.6034,1.2185e-05,-9.4e-07,0.0,0 STARLINK-5193,1 54095U 22136AW  24090.22505930 -.00000094  00000-0  12185-4 0  9993,2 54095  53.2172 278.7029 0001420  80.5119 279.6034 15.08844281 80359,6917.867,95.437,540.715,538.75,0.0
54095.0,STARLINK-5193,PAYLOAD,2024-03-30 11:45:38,15.08839778,0.0001804,53.2171,277.514,79.2563,280.8632,3.9241e-05,3.36e-06,0.0,0 STARLINK-5193,1 54095U 22136AW  24090.49002442  .00000336  00000-0  39241-4 0  9992,2 54095  53.2171 277.5140 0001804  79.2563 280.8632 15.08839778 79927,6917.881,95.438,540.994,538.498,0.0
54095.0,STARLINK-5193,PAYLOAD,2024-03-30 21:17:57,15.08834728,0.0001712,53.2167,275.7299,79.0702,281.0482,-1.4272e-05,-5.15e-06,0.0,0 STARLINK-5193,1 54095U 22136AW  24090.88746840 -.00000515  00000-0 -14272-4 0  9990,2 54095  53.2167 275.7299 0001712  79.0702 281.0482 15.08834728 80454,6917.897,95.438,540.946,538.577,0.0
54095.0,STARLINK-5193,PAYLOAD,2024-03-31 11:36:25,15.08838217,0.0001449,53.2194,273.0554,87.2126,272.9032,8.4311e-05,1.054e-05,0.0,0 STARLINK-5193,1 54095U 22136AW  24091.48363033  .00001054  00000-0  84311-4 0  9994,2 54095  53.2194 273.0554 0001449  87.2126 272.9032 15.08838217 80072,6917.886,95.438,540.753,538.748,0.0
54095.0,STARLINK-5193,PAYLOAD,2024-03-31 19:33:21,15.08841441,0.0001273,53.217,271.5688,86.9355,273.1783,0.00010454,1.376e-05,0.0,0 STARLINK-5193,1 54095U 22136AW  24091.81482667  .00001376  00000-0  10454-3 0  9999,2 54095  53.2170 271.5688 0001273  86.9355 273.1783 15.08841441 80127,6917.876,95.437,540.622,538.86,0.0
54095.0,STARLINK-5193,PAYLOAD,2024-04-01 05:05:39,15.08838065,0.0001253,53.2162,269.7835,84.9323,275.1812,0.0001492,2.087e-05,0.0,0 STARLINK-5193,1 54095U 22136AW  24092.21226813  .00002087  00000-0  14920-3 0  9995,2 54095  53.2162 269.7835 0001253  84.9323 275.1812 15.08838065 80653,6917.886,95.438,540.618,538.884,0.0
54095.0,STARLINK-5193,PAYLOAD,2024-04-01 11:27:12,15.08838124,0.0001282,53.2162,268.594,85.2488,274.8651,0.00013981,1.938e-05,0.0,0 STARLINK-5193,1 54095U 22136AW  24092.47722939  .00001938  00000-0  13981-3 0  9993,2 54095  53.2162 268.5940 0001282  85.2488 274.8651 15.08838124 80221,6917.886,95.438,540.638,538.864,0.0
54095.0,STARLINK-5193,PAYLOAD,2024-04-02 04:56:26,15.0884208,0.0001288,53.2171,265.3228,85.0837,275.0302,0.00017159,2.444e-05,0.0,0 STARLINK-5193,1 54095U 22136AW  24093.20586804  .00002444  00000-0  17159-3 0  9998,2 54095  53.2171 265.3228 0001288  85.0837 275.0302 15.08842080 80331,6917.874,95.437,540.63,538.848,0.0
54095.0,STARLINK-5193,PAYLOAD,2024-04-02 20:50:17,15.08848516,0.0001279,53.2177,262.3471,90.4159,269.6979,9.7728e-05,1.268e-05,0.0,0 STARLINK-5193,1 54095U 22136AW  24093.86826383  .00001268  00000-0  97728-4 0  9993,2 54095  53.2177 262.3471 0001279  90.4159 269.6979 15.08848516 80903,6917.854,95.437,540.604,538.835,0.0
54095.0,STARLINK-5193,PAYLOAD,2024-04-03 11:08:46,15.08840038,0.0001296,53.2176,259.6702,96.1877,263.9263,0.00010464,1.378e-05,0.0,0 STARLINK-5193,1 54095U 22136AW  24094.46442751  .00001378  00000-0  10464-3 0  9996,2 54095  53.2176 259.6702 0001296  96.1877 263.9263 15.08840038 80990,6917.88,95.438,540.642,538.849,0.0
54095.0,STARLINK-5193,PAYLOAD,2024-04-03 17:30:18,15.08842567,0.0001197,53.2169,258.4818,92.5666,267.5463,8.752e-05,1.105e-05,0.0,0 STARLINK-5193,1 54095U 22136AW  24094.72938526  .00001105  00000-0  87520-4 0  9991,2 54095  53.2169 258.4818 0001197  92.5666 267.5463 15.08842567 80567,6917.873,95.437,540.566,538.909,0.0
54095.0,STARLINK-5193,PAYLOAD,2024-04-04 14:10:19,15.08837804,0.0001297,53.2176,254.6151,96.4065,263.7075,2.6519e-05,1.34e-06,0.0,0 STARLINK-5193,1 54095U 22136AW  24095.59050828  .00000134  00000-0  26519-4 0  9999,2 54095  53.2176 254.6151 0001297  96.4065 263.7075 15.08837804 80699,6917.887,95.438,540.649,538.855,0.0
54095.0,STARLINK-5193,PAYLOAD,2024-04-04 17:21:06,15.08839628,0.0001232,53.2172,254.0206,96.2143,263.8989,4.4563e-05,4.21e-06,0.0,0 STARLINK-5193,1 54095U 22136AW  24095.72298647  .00000421  00000-0  44563-4 0  9995,2 54095  53.2172 254.0206 0001232  96.2143 263.8989 15.08839628 81180,6917.882,95.438,540.599,538.894,0.0
54095.0,STARLINK-5193,PAYLOAD,2024-04-05 14:01:06,15.08843036,0.0001348,53.2173,250.1548,94.4008,265.7138,7.6405e-05,9.28e-06,0.0,0 STARLINK-5193,1 54095U 22136AW  24096.58410262  .00000928  00000-0  76405-4 0  9991,2 54095  53.2173 250.1548 0001348  94.4008 265.7138 15.08843036 80842,6917.871,95.437,540.669,538.804,0.0
54095.0,STARLINK-5193,PAYLOAD,2024-04-05 17:11:52,15.08847152,0.000127,53.2174,249.5621,94.2877,265.826,0.00010928,1.452e-05,0.0,0 STARLINK-5193,1 54095U 22136AW  24096.71657915  .00001452  00000-0  10928-3 0  9994,2 54095  53.2174 249.5621 0001270  94.2877 265.8260 15.08847152 81338,6917.859,95.437,540.602,538.845,0.0
54095.0,STARLINK-5193,PAYLOAD,2024-04-06 02:44:11,15.08839174,0.0001212,53.2163,247.7758,82.8981,277.2149,4.8722e-05,4.88e-06,0.0,0 STARLINK-5193,1 54095U 22136AW  24097.11402559  .00000488  00000-0  48722-4 0  9993,2 54095  53.2163 247.7758 0001212  82.8981 277.2149 15.08839174 81396,6917.883,95.438,540.586,538.909,0.0
54095.0,STARLINK-5193,PAYLOAD,2024-04-06 20:13:26,15.08834092,0.0001322,53.2181,244.5044,82.1926,277.9216,9.2199e-06,-1.41e-06,0.0,0 STARLINK-5193,1 54095U 22136AW  24097.84267223 -.00000141  00000-0  92199-5 0  9995,2 54095  53.2181 244.5044 0001322  82.1926 277.9216 15.08834092 81502,6917.898,95.438,540.678,538.849,0.0
54095.0,STARLINK-5193,PAYLOAD,2024-04-07 08:56:32,15.08837292,0.0001542,53.2173,242.1269,90.5733,269.5435,-4.0265e-05,-9.29e-06,0.0,0 STARLINK-5193,1 54095U 22136AW  24098.37259430 -.00000929  00000-0 -40265-4 0  9996,2 54095  53.2173 242.1269 0001542  90.5733 269.5435 15.08837292 81111,6917.889,95.438,540.82,538.687,0.0
54095.0,STARLINK-5193,PAYLOAD,2024-04-07 20:04:14,15.08836428,0.0001554,53.2177,240.0449,85.9362,274.1808,-3.174e-05,-7.93e-06,0.0,0 STARLINK-5193,1 54095U 22136AW  24098.83627615 -.00000793  00000-0 -31740-4 0  9998,2 54095  53.2177 240.0449 0001554  85.9362 274.1808 15.08836428 81184,6917.891,95.438,540.831,538.681,0.0
54095.0,STARLINK-5193,PAYLOAD,2024-04-08 02:25:46,15.08842592,0.00016,53.2184,238.8554,80.991,279.1263,-5.3695e-05,-1.143e-05,0.0,0 STARLINK-5193,1 54095U 22136AW  24099.10123305 -.00001143  00000-0 -53695-4 0  9999,2 54095  53.2184 238.8554 0001600  80.9910 279.1263 15.08842592 81695,6917.872,95.437,540.844,538.631,0.0
54095.0,STARLINK-5193,PAYLOAD,2024-04-08 08:47:19,15.08837395,0.0001687,53.2195,237.6658,80.0708,280.0475,9.5809e-05,1.237e-05,0.0,0 STARLINK-5193,1 54095U 22136AW  24099.36619431  .00001237  00000-0  95809-4 0  9992,2 54095  53.2195 237.6658 0001687  80.0708 280.0475 15.08837395 81264,6917.888,95.438,540.92,538.586,0.0
54095.0,STARLINK-5193,PAYLOAD,2024-04-09 14:59:38,15.08842067,0.0001979,53.2216,232.0173,80.794,279.3276,0.00013066,1.792e-05,0.0,0 STARLINK-5193,1 54095U 22136AW  24100.62475229  .00001792  00000-0  13066-3 0  9999,2 54095  53.2216 232.0173 0001979  80.7940 279.3276 15.08842067 81451,6917.874,95.437,541.108,538.37,0.0
54095.0,STARLINK-5193,PAYLOAD,2024-04-10 08:28:53,15.08840883,0.0001717,53.2204,228.7471,80.2774,279.8412,4.2796e-05,3.93e-06,0.0,0 STARLINK-5193,1 54095U 22136AW  24101.35339458  .00000393  00000-0  42796-4 0  9992,2 54095  53.2204 228.7471 0001717  80.2774 279.8412 15.08840883 81564,6917.878,95.437,540.93,538.555,0.0
